NORAD_CAT_ID,OBJECT_NAME,OBJECT_TYPE,EPOCH,MEAN_MOTION,ECCENTRICITY,INCLINATION,RA_OF_ASC_NODE,ARG_OF_PERICENTER,MEAN_ANOMALY,BSTAR,MEAN_MOTION_DOT,MEAN_MOTION_DDOT,TLE_LINE0,TLE_LINE1,TLE_LINE2,SEMIMAJOR_AXIS,PERIOD,APOGEE,PERIGEE,DECAYED
56776.0,STARLINK-6274,PAYLOAD,2023-11-05 18:26:06,15.69911173,0.0002405,69.9983,327.6887,276.4102,83.6819,1.2738e-05,1.319e-05,0.0,0 STARLINK-6274,1 56776U 23078K   23309.76812601  .00001319  00000-0  12738-4 0  9998,2 56776  69.9983 327.6887 0002405 276.4102  83.6819 15.69911173 25185,6737.288,91.725,360.773,357.533,0.0
56776.0,STARLINK-6274,PAYLOAD,2023-11-06 03:36:34,15.6994139,0.0003365,69.9995,326.6137,270.4066,89.6744,1.2902e-05,1.34e-05,0.0,0 STARLINK-6274,1 56776U 23078K   23310.15040358  .00001340  00000-0  12902-4 0  9992,2 56776  69.9995 326.6137 0003365 270.4066  89.6744 15.69941390 25248,6737.202,91.723,361.334,356.8,0.0
56776.0,STARLINK-6274,PAYLOAD,2023-11-06 11:15:25,15.6986519,0.0002951,69.9999,325.7173,278.0184,82.0677,-6.3923e-05,-7.872e-05,0.0,0 STARLINK-6274,1 56776U 23078K   23310.46904682 -.00007872  00000-0 -63923-4 0  9992,2 56776  69.9999 325.7173 0002951 278.0184  82.0677 15.69865190 25297,6737.42,91.728,361.273,357.296,0.0
56776.0,STARLINK-6274,PAYLOAD,2023-11-06 18:54:10,15.69883746,0.0003073,69.9988,324.8214,268.2862,91.7981,-4.5959e-05,-5.725e-05,0.0,0 STARLINK-6274,1 56776U 23078K   23310.78762150 -.00005725  00000-0 -45959-4 0  9993,2 56776  69.9988 324.8214 0003073 268.2862  91.7981 15.69883746 25349,6737.367,91.727,361.302,357.161,0.0
56776.0,STARLINK-6274,PAYLOAD,2023-11-07 04:04:38,15.69924389,0.0002292,69.9983,323.746,268.7654,91.3279,-8.1736e-06,-1.195e-05,0.0,0 STARLINK-6274,1 56776U 23078K   23311.16989488 -.00001195  00000-0 -81736-5 0  9992,2 56776  69.9983 323.7460 0002292 268.7654  91.3279 15.69924389 25403,6737.25,91.724,360.659,357.571,0.0
56776.0,STARLINK-6274,PAYLOAD,2023-11-07 10:11:37,15.69944807,0.0002647,69.9988,323.031,263.5557,96.5337,1.1848e-05,1.213e-05,0.0,0 STARLINK-6274,1 56776U 23078K   23311.42474278  .00001213  00000-0  11848-4 0  9992,2 56776  69.9988 323.0310 0002647 263.5557  96.5337 15.69944807 25447,6737.192,91.723,360.84,357.274,0.0
56776.0,STARLINK-6274,PAYLOAD,2023-11-07 17:50:24,15.69923878,0.0002354,69.9986,322.1357,289.0623,71.0318,1.3168e-05,1.371e-05,0.0,0 STARLINK-6274,1 56776U 23078K   23311.74334139  .00001371  00000-0  13168-4 0  9990,2 56776  69.9986 322.1357 0002354 289.0623  71.0318 15.69923878 25495,6737.252,91.724,360.703,357.531,0.0
56776.0,STARLINK-6274,PAYLOAD,2023-11-08 10:39:42,15.69902079,0.0003165,69.9985,320.1652,278.9192,81.1645,-1.7513e-05,-2.316e-05,0.0,0 STARLINK-6274,1 56776U 23078K   23312.44424093 -.00002316  00000-0 -17513-4 0  9997,2 56776  69.9985 320.1652 0003165 278.9192  81.1645 15.69902079 25607,6737.314,91.725,361.312,357.047,0.0
56776.0,STARLINK-6274,PAYLOAD,2023-11-08 18:18:26,15.69903134,0.0002588,69.9999,319.2707,275.2368,84.8532,7.2898e-05,8.553e-05,0.0,0 STARLINK-6274,1 56776U 23078K   23312.76280982  .00008553  00000-0  72898-4 0  9993,2 56776  69.9999 319.2707 0002588 275.2368  84.8532 15.69903134 25658,6737.311,91.725,360.92,357.433,0.0
56776.0,STARLINK-6274,PAYLOAD,2023-11-09 03:28:58,15.69898824,0.0002686,70.0,318.196,258.0501,102.0394,1.1834e-05,1.209e-05,0.0,0 STARLINK-6274,1 56776U 23078K   23313.14512438  .00001209  00000-0  11834-4 0  9994,2 56776  70.0000 318.1960 0002686 258.0501 102.0394 15.69898824 25715,6737.323,91.726,360.998,357.379,0.0
56776.0,STARLINK-6274,PAYLOAD,2023-11-09 09:36:05,15.69827164,0.0002655,69.9994,317.4802,277.3509,82.7385,-0.00010091,-0.00012278,0.0,0 STARLINK-6274,1 56776U 23078K   23313.40006302 -.00012278  00000-0 -10091-3 0  9994,2 56776  69.9994 317.4802 0002655 277.3509  82.7385 15.69827164 25756,6737.528,91.73,361.182,357.605,0.0
56776.0,STARLINK-6274,PAYLOAD,2023-11-10 03:57:05,15.69903971,0.0002835,70.0011,315.3304,212.0162,148.0862,-4.2474e-05,-5.311e-05,0.0,0 STARLINK-6274,1 56776U 23078K   23314.16464994 -.00005311  00000-0 -42474-4 0  9994,2 56776  70.0011 315.3304 0002835 212.0162 148.0862 15.69903971 25874,6737.309,91.725,361.084,357.264,0.0
56776.0,STARLINK-6274,PAYLOAD,2023-11-10 10:05:49,15.68784008,0.0002202,69.9994,314.6179,233.0784,127.021,-0.0011379,-0.00128741,0.0,0 STARLINK-6274,1 56776U 23078K   23314.42070848 -.00128741  00000-0 -11379-2 0  9995,2 56776  69.9994 314.6179 0002202 233.0784 127.0210 15.68784008 25910,6740.515,91.791,363.864,360.896,0.0
56776.0,STARLINK-6274,PAYLOAD,2023-11-10 20:00:01,15.66774797,0.0003381,69.9995,313.4597,263.5549,266.1688,-0.0088493,-0.00845889,0.0,0 STARLINK-6274,1 56776U 23078K   23314.83334491 -.00845889  00000-0 -88493-2 0  9997,2 56776  69.9995 313.4597 0003381 263.5549 266.1688 15.66774797 25970,6746.276,91.909,370.422,365.86,0.0
56776.0,STARLINK-6274,PAYLOAD,2023-11-10 22:00:00,15.66619361,0.0003473,69.9994,313.2266,261.0071,18.5853,-0.0089475,-0.00849552,0.0,0 STARLINK-6274,1 56776U 23078K   23314.91667824 -.00849552  00000-0 -89475-2 0  9997,2 56776  69.9994 313.2266 0003473 261.0071  18.5853 15.66619361  6040,6746.723,91.918,370.931,366.244,0.0
56776.0,STARLINK-6274,PAYLOAD,2023-11-11 04:00:00,15.66171989,0.0003413,69.9997,312.5273,262.8899,346.0233,-0.0099358,-0.00932898,0.0,0 STARLINK-6274,1 56776U 23078K   23315.16667824 -.00932898  00000-0 -99358-2 0  9992,2 56776  69.9997 312.5273 0003413 262.8899 346.0233 15.66171989 26035,6748.007,91.944,372.175,367.569,0.0
56776.0,STARLINK-6274,PAYLOAD,2023-11-11 14:00:01,15.65358208,0.0003345,69.9993,311.363,269.2531,167.568,-0.010354,-0.00940115,0.0,0 STARLINK-6274,1 56776U 23078K   23315.58334491 -.00940115  00000-0 -10354-1 0  9998,2 56776  69.9993 311.3630 0003345 269.2531 167.5680 15.65358208  6055,6750.346,91.992,374.469,369.953,0.0
56776.0,STARLINK-6274,PAYLOAD,2023-11-11 22:00:01,15.64666517,0.0003295,69.9996,310.4329,261.4516,252.8885,-0.0097368,-0.00854111,0.0,0 STARLINK-6274,1 56776U 23078K   23315.91668981 -.00854111  00000-0 -97368-2 0  9990,2 56776  69.9996 310.4329 0003295 261.4516 252.8885 15.64666517  5940,6752.335,92.032,376.425,371.975,0.0
56776.0,STARLINK-6274,PAYLOAD,2023-11-12 12:00:02,15.63549796,0.0003361,69.9989,308.8068,267.1856,290.7984,-0.010758,-0.00911695,0.0,0 STARLINK-6274,1 56776U 23078K   23316.50002315 -.00911695  00000-0 -10758-1 0  9997,2 56776  69.9989 308.8068 0003361 267.1856 290.7984 15.63549796 26231,6755.55,92.098,379.685,375.144,0.0
56776.0,STARLINK-6274,PAYLOAD,2023-11-12 14:00:01,15.63404473,0.000352,69.999,308.5747,265.7885,41.0227,-0.011283,-0.00947245,0.0,0 STARLINK-6274,1 56776U 23078K   23316.58334491 -.00947245  00000-0 -11283-1 0  9992,2 56776  69.9990 308.5747 0003520 265.7885  41.0227 15.63404473  6043,6755.968,92.107,380.211,375.455,0.0
56776.0,STARLINK-6274,PAYLOAD,2023-11-12 22:00:00,15.62707868,0.0003542,69.9992,307.6471,260.7772,121.1418,-0.010482,-0.00863751,0.0,0 STARLINK-6274,1 56776U 23078K   23316.91667824 -.00863751  00000-0 -10482-1 0  9997,2 56776  69.9992 307.6471 0003542 260.7772 121.1418 15.62707868  5889,6757.976,92.148,382.235,377.447,0.0
56776.0,STARLINK-6274,PAYLOAD,2023-11-13 04:00:00,15.62264298,0.0003554,69.9995,306.9518,262.7825,84.937,-0.011768,-0.00944953,0.0,0 STARLINK-6274,1 56776U 23078K   23317.16667824 -.00944953  00000-0 -11768-1 0  9997,2 56776  69.9995 306.9518 0003554 262.7825  84.9370 15.62264298 26342,6759.255,92.174,383.522,378.718,0.0
56776.0,STARLINK-6274,PAYLOAD,2023-11-13 14:00:01,15.61455287,0.0003208,69.9992,305.7944,264.7824,264.9758,-0.012366,-0.00960449,0.0,0 STARLINK-6274,1 56776U 23078K   23317.58334491 -.00960449  00000-0 -12366-1 0  9997,2 56776  69.9992 305.7944 0003208 264.7824 264.9758 15.61455287  5993,6761.59,92.222,385.624,381.285,0.0
56776.0,STARLINK-6274,PAYLOAD,2023-11-13 20:00:01,15.60898479,0.0003347,69.9993,305.1008,260.0753,234.3388,-0.010966,-0.00843906,0.0,0 STARLINK-6274,1 56776U 23078K   23317.83334491 -.00843906  00000-0 -10966-1 0  9997,2 56776  69.9993 305.1008 0003347 260.0753 234.3388 15.60898479 26449,6763.197,92.255,387.326,382.799,0.0
56776.0,STARLINK-6274,PAYLOAD,2023-11-13 22:00:00,15.60754368,0.0003411,69.9995,304.8697,257.393,345.1257,-0.011318,-0.00864331,0.0,0 STARLINK-6274,1 56776U 23078K   23317.91667824 -.00864331  00000-0 -11318-1 0  9992,2 56776  69.9995 304.8697 0003411 257.3930 345.1257 15.60754368  6047,6763.614,92.263,387.786,383.172,0.0
56776.0,STARLINK-6274,PAYLOAD,2023-11-14 04:00:00,15.60303431,0.0003296,69.9995,304.1766,262.1694,304.3939,-0.012607,-0.00938739,0.0,0 STARLINK-6274,1 56776U 23078K   23318.16667824 -.00938739  00000-0 -12607-1 0  9996,2 56776  69.9995 304.1766 0003296 262.1694 304.3939 15.60303431 26495,6764.917,92.29,389.012,384.552,0.0
56776.0,STARLINK-6274,PAYLOAD,2023-11-14 14:00:01,15.59491857,0.0003524,69.9991,303.0225,268.2862,117.3831,-0.013202,-0.00951708,0.0,0 STARLINK-6274,1 56776U 23078K   23318.58334491 -.00951708  00000-0 -13202-1 0  9996,2 56776  69.9991 303.0225 0003524 268.2862 117.3831 15.59491857  6003,6767.264,92.338,391.513,386.744,0.0
56776.0,STARLINK-6274,PAYLOAD,2023-11-14 22:00:00,15.58804756,0.0003495,69.9996,302.1002,264.3886,191.6893,-0.01236,-0.00875077,0.0,0 STARLINK-6274,1 56776U 23078K   23318.91667824 -.00875077  00000-0 -12360-1 0  9990,2 56776  69.9996 302.1002 0003495 264.3886 191.6893 15.58804756  6054,6769.252,92.378,393.483,388.751,0.0
56776.0,STARLINK-6274,PAYLOAD,2023-11-15 06:00:02,15.58161071,0.0003388,69.9997,301.1788,268.107,257.6652,-0.013136,-0.0090472,0.0,0 STARLINK-6274,1 56776U 23078K   23319.25002315 -.00904720  00000-0 -13136-1 0  9996,2 56776  69.9997 301.1788 0003388 268.1070 257.6652 15.58161071 26664,6771.116,92.417,395.275,390.687,0.0
56776.0,STARLINK-6274,PAYLOAD,2023-11-15 14:00:01,15.57541158,0.0003372,69.9995,300.2584,265.3795,329.2228,-0.014397,-0.00962661,0.0,0 STARLINK-6274,1 56776U 23078K   23319.58335648 -.00962661  00000-0 -14397-1 0  9998,2 56776  69.9995 300.2584 0003372 265.3795 329.2228 15.57541158  5896,6772.913,92.453,397.062,392.494,0.0
